{
  "type": "FeatureCollection",
  "features": [
    {
      "type": "Feature",
      "properties": {
        "norad_id": 28890,
        "name": "BEIJING 1",
        "group": "dmc",
        "lat": -51.611358679578565,
        "lon": 125.86529057926502,
        "alt_km": 699.9212195371811,
        "timestamp": "2025-12-13T18:50:04.094906+00:00",
        "meta_object_name": "BEIJING 1",
        "meta_object_id": "2005-043A",
        "meta_epoch": "2025-12-13T07:35:12.824160",
        "meta_mean_motion": 14.63367913,
        "meta_eccentricity": 0.00153486,
        "meta_inclination": 98.265,
        "meta_ra_of_asc_node": 114.8238,
        "meta_arg_of_pericenter": 139.4874,
        "meta_mean_anomaly": 220.7473,
        "meta_ephemeris_type": 0,
        "meta_classification_type": "U",
        "meta_norad_cat_id": 28890,
        "meta_element_set_no": 999,
        "meta_rev_at_epoch": 7346,
        "meta_bstar": 0.00016915304,
        "meta_mean_motion_dot": 8.27e-06,
        "meta_mean_motion_ddot": 0,
        "tle_line1": "1 28890U 05043A   25347.31612065  .00000827  00000+0  16915-3 0  9995",
        "tle_line2": "2 28890  98.2650 114.8238 0015348 139.4874 220.7473 14.63367913 73461"
      },
      "geometry": {
        "type": "Point",
        "coordinates": [
          125.86529057926502,
          -51.611358679578565
        ]
      }
    },
    {
      "type": "Feature",
      "properties": {
        "norad_id": 33320,
        "name": "HUANJING 1A (HJ-1A)",
        "group": "dmc",
        "lat": 49.63712746667069,
        "lon": -33.06426603079973,
        "alt_km": 600.8656376271456,
        "timestamp": "2025-12-13T18:50:04.094929+00:00",
        "meta_object_name": "HUANJING 1A (HJ-1A)",
        "meta_object_id": "2008-041A",
        "meta_epoch": "2025-12-13T07:16:38.373888",
        "meta_mean_motion": 14.83398099,
        "meta_eccentricity": 0.00200719,
        "meta_inclination": 97.6544,
        "meta_ra_of_asc_node": 335.5783,
        "meta_arg_of_pericenter": 32.5253,
        "meta_mean_anomaly": 327.7194,
        "meta_ephemeris_type": 0,
        "meta_classification_type": "U",
        "meta_norad_cat_id": 33320,
        "meta_element_set_no": 999,
        "meta_rev_at_epoch": 93084,
        "meta_bstar": 0.00032134814,
        "meta_mean_motion_dot": 2.595e-05,
        "meta_mean_motion_ddot": 0,
        "tle_line1": "1 33320U 08041A   25347.30322192  .00002595  00000+0  32135-3 0  9994",
        "tle_line2": "2 33320  97.6544 335.5783 0020071  32.5253 327.7194 14.83398099930843"
      },
      "geometry": {
        "type": "Point",
        "coordinates": [
          -33.06426603079973,
          49.63712746667069
        ]
      }
    },
    {
      "type": "Feature",
      "properties": {
        "norad_id": 33321,
        "name": "HUANJING 1B (HJ-1B)",
        "group": "dmc",
        "lat": -82.29758521802563,
        "lon": 76.751817712123,
        "alt_km": 653.3498460566916,
        "timestamp": "2025-12-13T18:50:04.094943+00:00",
        "meta_object_name": "HUANJING 1B (HJ-1B)",
        "meta_object_id": "2008-041B",
        "meta_epoch": "2025-12-13T06:17:21.259968",
        "meta_mean_motion": 14.82824604,
        "meta_eccentricity": 0.00381571,
        "meta_inclination": 97.6403,
        "meta_ra_of_asc_node": 339.2345,
        "meta_arg_of_pericenter": 74.047,
        "meta_mean_anomaly": 286.4943,
        "meta_ephemeris_type": 0,
        "meta_classification_type": "U",
        "meta_norad_cat_id": 33321,
        "meta_element_set_no": 999,
        "meta_rev_at_epoch": 93085,
        "meta_bstar": 0.00032822487,
        "meta_mean_motion_dot": 2.638e-05,
        "meta_mean_motion_ddot": 0,
        "tle_line1": "1 33321U 08041B   25347.26205162  .00002638  00000+0  32822-3 0  9998",
        "tle_line2": "2 33321  97.6403 339.2345 0038157  74.0470 286.4943 14.82824604930858"
      },
      "geometry": {
        "type": "Point",
        "coordinates": [
          76.751817712123,
          -82.29758521802563
        ]
      }
    },
    {
      "type": "Feature",
      "properties": {
        "norad_id": 33446,
        "name": "YAOGAN-4",
        "group": "dmc",
        "lat": -0.3357738571345302,
        "lon": 97.82712237317655,
        "alt_km": 631.1338539460712,
        "timestamp": "2025-12-13T18:50:04.094955+00:00",
        "meta_object_name": "YAOGAN-4",
        "meta_object_id": "2008-061A",
        "meta_epoch": "2025-12-13T06:41:08.234592",
        "meta_mean_motion": 14.8268628,
        "meta_eccentricity": 0.00135434,
        "meta_inclination": 97.9181,
        "meta_ra_of_asc_node": 277.3727,
        "meta_arg_of_pericenter": 321.4814,
        "meta_mean_anomaly": 38.5431,
        "meta_ephemeris_type": 0,
        "meta_classification_type": "U",
        "meta_norad_cat_id": 33446,
        "meta_element_set_no": 999,
        "meta_rev_at_epoch": 91811,
        "meta_bstar": 0.00032331381,
        "meta_mean_motion_dot": 2.558e-05,
        "meta_mean_motion_ddot": 0,
        "tle_line1": "1 33446U 08061A   25347.27856753  .00002558  00000+0  32331-3 0  9993",
        "tle_line2": "2 33446  97.9181 277.3727 0013543 321.4814  38.5431 14.82686280918110"
      },
      "geometry": {
        "type": "Point",
        "coordinates": [
          97.82712237317655,
          -0.3357738571345302
        ]
      }
    },
    {
      "type": "Feature",
      "properties": {
        "norad_id": 35681,
        "name": "DEIMOS-1",
        "group": "dmc",
        "lat": -76.55773474937966,
        "lon": -177.10681251150586,
        "alt_km": 654.4013666440778,
        "timestamp": "2025-12-13T18:50:04.094966+00:00",
        "meta_object_name": "DEIMOS-1",
        "meta_object_id": "2009-041A",
        "meta_epoch": "2025-12-13T07:47:41.943264",
        "meta_mean_motion": 14.74954265,
        "meta_eccentricity": 0.00027458,
        "meta_inclination": 97.7151,
        "meta_ra_of_asc_node": 147.9007,
        "meta_arg_of_pericenter": 79.152,
        "meta_mean_anomaly": 280.9999,
        "meta_ephemeris_type": 0,
        "meta_classification_type": "U",
        "meta_norad_cat_id": 35681,
        "meta_element_set_no": 999,
        "meta_rev_at_epoch": 87948,
        "meta_bstar": 0.00018147471,
        "meta_mean_motion_dot": 1.172e-05,
        "meta_mean_motion_ddot": 0,
        "tle_line1": "1 35681U 09041A   25347.32479101  .00001172  00000+0  18147-3 0  9999",
        "tle_line2": "2 35681  97.7151 147.9007 0002745  79.1520 280.9999 14.74954265879484"
      },
      "geometry": {
        "type": "Point",
        "coordinates": [
          -177.10681251150586,
          -76.55773474937966
        ]
      }
    },
    {
      "type": "Feature",
      "properties": {
        "norad_id": 35683,
        "name": "UK-DMC 2",
        "group": "dmc",
        "lat": -60.428075214666094,
        "lon": 136.7400552980427,
        "alt_km": 651.2656856303856,
        "timestamp": "2025-12-13T18:50:04.094977+00:00",
        "meta_object_name": "UK-DMC 2",
        "meta_object_id": "2009-041C",
        "meta_epoch": "2025-12-13T07:43:13.486368",
        "meta_mean_motion": 14.7562331,
        "meta_eccentricity": 0.00014506,
        "meta_inclination": 97.8559,
        "meta_ra_of_asc_node": 122.2074,
        "meta_arg_of_pericenter": 97.3112,
        "meta_mean_anomaly": 262.8263,
        "meta_ephemeris_type": 0,
        "meta_classification_type": "U",
        "meta_norad_cat_id": 35683,
        "meta_element_set_no": 999,
        "meta_rev_at_epoch": 87915,
        "meta_bstar": 0.0002004774,
        "meta_mean_motion_dot": 1.319e-05,
        "meta_mean_motion_ddot": 0,
        "tle_line1": "1 35683U 09041C   25347.32168387  .00001319  00000+0  20048-3 0  9998",
        "tle_line2": "2 35683  97.8559 122.2074 0001450  97.3112 262.8263 14.75623310879152"
      },
      "geometry": {
        "type": "Point",
        "coordinates": [
          136.7400552980427,
          -60.428075214666094
        ]
      }
    },
    {
      "type": "Feature",
      "properties": {
        "norad_id": 40715,
        "name": "DMC3-FM1",
        "group": "dmc",
        "lat": 24.21566614927745,
        "lon": -148.535438354752,
        "alt_km": 610.3716593277468,
        "timestamp": "2025-12-13T18:50:04.094989+00:00",
        "meta_object_name": "DMC3-FM1",
        "meta_object_id": "2015-032A",
        "meta_epoch": "2025-12-13T07:24:29.062080",
        "meta_mean_motion": 14.85440591,
        "meta_eccentricity": 0.00046615,
        "meta_inclination": 97.669,
        "meta_ra_of_asc_node": 214.4803,
        "meta_arg_of_pericenter": 318.9665,
        "meta_mean_anomaly": 41.12,
        "meta_ephemeris_type": 0,
        "meta_classification_type": "U",
        "meta_norad_cat_id": 40715,
        "meta_element_set_no": 999,
        "meta_rev_at_epoch": 56231,
        "meta_bstar": 0.00012483428,
        "meta_mean_motion_dot": 1.025e-05,
        "meta_mean_motion_ddot": 0,
        "tle_line1": "1 40715U 15032A   25347.30866970  .00001025  00000+0  12483-3 0  9996",
        "tle_line2": "2 40715  97.6690 214.4803 0004661 318.9665  41.1200 14.85440591562319"
      },
      "geometry": {
        "type": "Point",
        "coordinates": [
          -148.535438354752,
          24.21566614927745
        ]
      }
    },
    {
      "type": "Feature",
      "properties": {
        "norad_id": 40716,
        "name": "DMC3-FM2",
        "group": "dmc",
        "lat": -80.41796940439818,
        "lon": -16.630747160249044,
        "alt_km": 617.6178050542085,
        "timestamp": "2025-12-13T18:50:04.095000+00:00",
        "meta_object_name": "DMC3-FM2",
        "meta_object_id": "2015-032B",
        "meta_epoch": "2025-12-13T06:19:52.635360",
        "meta_mean_motion": 14.85444009,
        "meta_eccentricity": 0.0005237,
        "meta_inclination": 97.6747,
        "meta_ra_of_asc_node": 215.8814,
        "meta_arg_of_pericenter": 324.2232,
        "meta_mean_anomaly": 35.8632,
        "meta_ephemeris_type": 0,
        "meta_classification_type": "U",
        "meta_norad_cat_id": 40716,
        "meta_element_set_no": 999,
        "meta_rev_at_epoch": 56230,
        "meta_bstar": 0.00019657605,
        "meta_mean_motion_dot": 1.643e-05,
        "meta_mean_motion_ddot": 0,
        "tle_line1": "1 40716U 15032B   25347.26380365  .00001643  00000+0  19658-3 0  9998",
        "tle_line2": "2 40716  97.6747 215.8814 0005237 324.2232  35.8632 14.85444009562306"
      },
      "geometry": {
        "type": "Point",
        "coordinates": [
          -16.630747160249044,
          -80.41796940439818
        ]
      }
    },
    {
      "type": "Feature",
      "properties": {
        "norad_id": 40717,
        "name": "DMC3-FM3",
        "group": "dmc",
        "lat": 30.890974651031947,
        "lon": 42.64838348667651,
        "alt_km": 613.7782967529129,
        "timestamp": "2025-12-13T18:50:04.095011+00:00",
        "meta_object_name": "DMC3-FM3",
        "meta_object_id": "2015-032C",
        "meta_epoch": "2025-12-13T06:51:01.140768",
        "meta_mean_motion": 14.8543444,
        "meta_eccentricity": 0.00045779,
        "meta_inclination": 97.6803,
        "meta_ra_of_asc_node": 217.5359,
        "meta_arg_of_pericenter": 327.1585,
        "meta_mean_anomaly": 32.9345,
        "meta_ephemeris_type": 0,
        "meta_classification_type": "U",
        "meta_norad_cat_id": 40717,
        "meta_element_set_no": 999,
        "meta_rev_at_epoch": 56231,
        "meta_bstar": 0.00019619531,
        "meta_mean_motion_dot": 1.639e-05,
        "meta_mean_motion_ddot": 0,
        "tle_line1": "1 40717U 15032C   25347.28542987  .00001639  00000+0  19620-3 0  9995",
        "tle_line2": "2 40717  97.6803 217.5359 0004577 327.1585  32.9345 14.85434440562310"
      },
      "geometry": {
        "type": "Point",
        "coordinates": [
          42.64838348667651,
          30.890974651031947
        ]
      }
    }
  ]
}